{"type": "FeatureCollection", "features": [ {"type": "Feature", "properties": {"norad_id": 54234, "name": "NOAA 21 (JPSS-2)", "group": "weather", "lat": -2.634813413914681, "lon": -61.99388930234857, "alt_km": 829.0995873617567, "timestamp": "2025-12-27T11:23:19.520814+00:00", "meta": {"OBJECT_NAME": "NOAA 21 (JPSS-2)", "OBJECT_ID": "2022-150A", "EPOCH": "2025-12-27T02:56:34.827648", "MEAN_MOTION": 14.19528213, "ECCENTRICITY": 0.0001545, "INCLINATION": 98.7479, "RA_OF_ASC_NODE": 297.2526, "ARG_OF_PERICENTER": 7.7391, "MEAN_ANOMALY": 352.3809, "EPHEMERIS_TYPE": 0, "CLASSIFICATION_TYPE": "U", "NORAD_CAT_ID": 54234, "ELEMENT_SET_NO": 999, "REV_AT_EPOCH": 16213, "BSTAR": 7.8897e-05, "MEAN_MOTION_DOT": 1.22e-06, "MEAN_MOTION_DDOT": 0}, "tle": {"line1": "1 54234U 22150A   25361.12262532  .00000122  00000+0  78897-4 0  9995", "line2": "2 54234  98.7479 297.2526 0001545   7.7391 352.3809 14.19528213162138"}}, "geometry": {"type": "Point", "coordinates": [-61.99388930234857, -2.634813413914681]}}, {"type": "Feature", "properties": {"norad_id": 54743, "name": "METEOSAT-12 (MTG-I1)", "group": "weather", "lat": -0.630411867564465, "lon": -93.30125776561454, "alt_km": 35778.97026976183, "timestamp": "2025-12-27T11:23:19.520826+00:00", "meta": {"OBJECT_NAME": "METEOSAT-12 (MTG-I1)", "OBJECT_ID": "2022-170C", "EPOCH": "2025-12-27T02:43:44.733216", "MEAN_MOTION": 1.00270941, "ECCENTRICITY": 0.0001753, "INCLINATION": 0.7018, "RA_OF_ASC_NODE": 25.9879, "ARG_OF_PERICENTER": 242.3425, "MEAN_ANOMALY": 228.1284, "EPHEMERIS_TYPE": 0, "CLASSIFICATION_TYPE": "U", "NORAD_CAT_ID": 54743, "ELEMENT_SET_NO": 999, "REV_AT_EPOCH": 1125, "BSTAR": 0, "MEAN_MOTION_DOT": 1.4e-07, "MEAN_MOTION_DDOT": 0}, "tle": {"line1": "1 54743U 22170C   25361.11371219  .00000014  00000+0  00000+0 0  9990", "line2": "2 54743   0.7018  25.9879 0001753 242.3425 228.1284  1.00270941 11259"}}, "geometry": {"type": "Point", "coordinates": [-93.30125776561454, -0.630411867564465]}}, {"type": "Feature", "properties": {"norad_id": 55973, "name": "TIANMU-1 03", "group": "weather", "lat": -62.35528461755369, "lon": -30.049227577093852, "alt_km": 451.0259583567813, "timestamp": "2025-12-27T11:23:19.520838+00:00", "meta": {"OBJECT_NAME": "TIANMU-1 03", "OBJECT_ID": "2023-039A", "EPOCH": "2025-12-27T04:06:14.755104", "MEAN_MOTION": 15.41355851, "ECCENTRICITY": 0.0003655, "INCLINATION": 97.5115, "RA_OF_ASC_NODE": 164.2297, "ARG_OF_PERICENTER": 18.4815, "MEAN_ANOMALY": 341.6563, "EPHEMERIS_TYPE": 0, "CLASSIFICATION_TYPE": "U", "NORAD_CAT_ID": 55973, "ELEMENT_SET_NO": 999, "REV_AT_EPOCH": 15428, "BSTAR": 0.00043736, "MEAN_MOTION_DOT": 0.00018184, "MEAN_MOTION_DDOT": 0}, "tle": {"line1": "1 55973U 23039A   25361.17100411  .00018184  00000+0  43736-3 0  9995", "line2": "2 55973  97.5115 164.2297 0003655  18.4815 341.6563 15.41355851154282"}}, "geometry": {"type": "Point", "coordinates": [-30.049227577093852, -62.35528461755369]}}, {"type": "Feature", "properties": {"norad_id": 55974, "name": "TIANMU-1 04", "group": "weather", "lat": 15.054340174378654, "lon": 161.69513694493585, "alt_km": 439.12240875739735, "timestamp": "2025-12-27T11:23:19.520880+00:00", "meta": {"OBJECT_NAME": "TIANMU-1 04", "OBJECT_ID": "2023-039B", "EPOCH": "2025-12-27T05:05:31.990848", "MEAN_MOTION": 15.41701947, "ECCENTRICITY": 0.000425, "INCLINATION": 97.5046, "RA_OF_ASC_NODE": 163.4574, "ARG_OF_PERICENTER": 11.6902, "MEAN_ANOMALY": 348.4443, "EPHEMERIS_TYPE": 0, "CLASSIFICATION_TYPE": "U", "NORAD_CAT_ID": 55974, "ELEMENT_SET_NO": 999, "REV_AT_EPOCH": 15429, "BSTAR": 0.00045309, "MEAN_MOTION_DOT": 0.00019062, "MEAN_MOTION_DDOT": 0}, "tle": {"line1": "1 55974U 23039B   25361.21217582  .00019062  00000+0  45309-3 0  9993", "line2": "2 55974  97.5046 163.4574 0004250  11.6902 348.4443 15.41701947154293"}}, "geometry": {"type": "Point", "coordinates": [161.69513694493585, 15.054340174378654]}}, {"type": "Feature", "properties": {"norad_id": 55975, "name": "TIANMU-1 05", "group": "weather", "lat": 26.51676272058908, "lon": 160.44618190038432, "alt_km": 438.7575774392253, "timestamp": "2025-12-27T11:23:19.520896+00:00", "meta": {"OBJECT_NAME": "TIANMU-1 05", "OBJECT_ID": "2023-039C", "EPOCH": "2025-12-27T05:02:26.154816", "MEAN_MOTION": 15.41313386, "ECCENTRICITY": 0.0003847, "INCLINATION": 97.5093, "RA_OF_ASC_NODE": 163.948, "ARG_OF_PERICENTER": 38.5691, "MEAN_ANOMALY": 321.5829, "EPHEMERIS_TYPE": 0, "CLASSIFICATION_TYPE": "U", "NORAD_CAT_ID": 55975, "ELEMENT_SET_NO": 999, "REV_AT_EPOCH": 15427, "BSTAR": 0.00044754, "MEAN_MOTION_DOT": 0.00018584, "MEAN_MOTION_DDOT": 0}, "tle": {"line1": "1 55975U 23039C   25361.21002494  .00018584  00000+0  44754-3 0  9999", "line2": "2 55975  97.5093 163.9480 0003847  38.5691 321.5829 15.41313386154275"}}, "geometry": {"type": "Point", "coordinates": [160.44618190038432, 26.51676272058908]}}, {"type": "Feature", "properties": {"norad_id": 55976, "name": "TIANMU-1 06", "group": "weather", "lat": 5.786725937816896, "lon": 163.93112708050612, "alt_km": 440.71269321434374, "timestamp": "2025-12-27T11:23:19.520907+00:00", "meta": {"OBJECT_NAME": "TIANMU-1 06", "OBJECT_ID": "2023-039D", "EPOCH": "2025-12-27T05:07:58.158912", "MEAN_MOTION": 15.41752373, "ECCENTRICITY": 0.0004091, "INCLINATION": 97.5103, "RA_OF_ASC_NODE": 164.429, "ARG_OF_PERICENTER": 32.1269, "MEAN_ANOMALY": 328.0227, "EPHEMERIS_TYPE": 0, "CLASSIFICATION_TYPE": "U", "NORAD_CAT_ID": 55976, "ELEMENT_SET_NO": 999, "REV_AT_EPOCH": 15429, "BSTAR": 0.00044219, "MEAN_MOTION_DOT": 0.00018632, "MEAN_MOTION_DDOT": 0}, "tle": {"line1": "1 55976U 23039D   25361.21386758  .00018632  00000+0  44219-3 0  9998", "line2": "2 55976  97.5103 164.4290 0004091  32.1269 328.0227 15.41752373154295"}}, "geometry": {"type": "Point", "coordinates": [163.93112708050612, 5.786725937816896]}}, {"type": "Feature", "properties": {"norad_id": 56232, "name": "FENGYUN 3G", "group": "weather", "lat": 42.24696682071653, "lon": -78.28923092184988, "alt_km": 407.01705006484553, "timestamp": "2025-12-27T11:23:19.520917+00:00", "meta": {"OBJECT_NAME": "FENGYUN 3G", "OBJECT_ID": "2023-055A", "EPOCH": "2025-12-27T03:09:18.391104", "MEAN_MOTION": 15.52182098, "ECCENTRICITY": 0.000392, "INCLINATION": 49.9927, "RA_OF_ASC_NODE": 153.1941, "ARG_OF_PERICENTER": 298.1124, "MEAN_ANOMALY": 61.9446, "EPHEMERIS_TYPE": 0, "CLASSIFICATION_TYPE": "U", "NORAD_CAT_ID": 56232, "ELEMENT_SET_NO": 999, "REV_AT_EPOCH": 15326, "BSTAR": 0.00054518, "MEAN_MOTION_DOT": 0.00033365, "MEAN_MOTION_DDOT": 0}, "tle": {"line1": "1 56232U 23055A   25361.13146286  .00033365  00000+0  54518-3 0  9996", "line2": "2 56232  49.9927 153.1941 0003920 298.1124  61.9446 15.52182098153263"}}, "geometry": {"type": "Point", "coordinates": [-78.28923092184988, 42.24696682071653]}}, {"type": "Feature", "properties": {"norad_id": 57166, "name": "METEOR-M2 3", "group": "weather", "lat": 37.096757291991025, "lon": -118.64594813410166, "alt_km": 811.330340381699, "timestamp": "2025-12-27T11:23:19.520928+00:00", "meta": {"OBJECT_NAME": "METEOR-M2 3", "OBJECT_ID": "2023-091A", "EPOCH": "2025-12-27T05:39:49.015872", "MEAN_MOTION": 14.24027833, "ECCENTRICITY": 0.0003156, "INCLINATION": 98.6357, "RA_OF_ASC_NODE": 54.5207, "ARG_OF_PERICENTER": 322.7587, "MEAN_ANOMALY": 37.3373, "EPHEMERIS_TYPE": 0, "CLASSIFICATION_TYPE": "U", "NORAD_CAT_ID": 57166, "ELEMENT_SET_NO": 999, "REV_AT_EPOCH": 13004, "BSTAR": 2.5636e-05, "MEAN_MOTION_DOT": 1.5e-07, "MEAN_MOTION_DDOT": 0}, "tle": {"line1": "1 57166U 23091A   25361.23598398  .00000015  00000+0  25636-4 0  9995", "line2": "2 57166  98.6357  54.5207 0003156 322.7587  37.3373 14.24027833130045"}}, "geometry": {"type": "Point", "coordinates": [-118.64594813410166, 37.096757291991025]}}, {"type": "Feature", "properties": {"norad_id": 57399, "name": "TIANMU-1 07", "group": "weather", "lat": 80.84030998976016, "lon": -1.510582773652453, "alt_km": 471.03591604781286, "timestamp": "2025-12-27T11:23:19.520938+00:00", "meta": {"OBJECT_NAME": "TIANMU-1 07", "OBJECT_ID": "2023-101A", "EPOCH": "2025-12-27T04:44:07.375776", "MEAN_MOTION": 15.28280713, "ECCENTRICITY": 0.0004862, "INCLINATION": 97.2857, "RA_OF_ASC_NODE": 50.728, "ARG_OF_PERICENTER": 43.8676, "MEAN_ANOMALY": 316.295, "EPHEMERIS_TYPE": 0, "CLASSIFICATION_TYPE": "U", "NORAD_CAT_ID": 57399, "ELEMENT_SET_NO": 999, "REV_AT_EPOCH": 13536, "BSTAR": 0.00030873, "MEAN_MOTION_DOT": 8.437e-05, "MEAN_MOTION_DDOT": 0}, "tle": {"line1": "1 57399U 23101A   25361.19730759  .00008437  00000+0  30873-3 0  9993", "line2": "2 57399  97.2857  50.7280 0004862  43.8676 316.2950 15.28280713135360"}}, "geometry": {"type": "Point", "coordinates": [-1.510582773652453, 80.84030998976016]}}, {"type": "Feature", "properties": {"norad_id": 57400, "name": "TIANMU-1 08", "group": "weather", "lat": -81.26688303260721, "lon": 174.41352304716705, "alt_km": 491.75110223852334, "timestamp": "2025-12-27T11:23:19.520951+00:00", "meta": {"OBJECT_NAME": "TIANMU-1 08", "OBJECT_ID": "2023-101B", "EPOCH": "2025-12-27T03:56:46.078080", "MEAN_MOTION": 15.28261437, "ECCENTRICITY": 0.00068, "INCLINATION": 97.2846, "RA_OF_ASC_NODE": 50.4914, "ARG_OF_PERICENTER": 42.8404, "MEAN_ANOMALY": 317.3365, "EPHEMERIS_TYPE": 0, "CLASSIFICATION_TYPE": "U", "NORAD_CAT_ID": 57400, "ELEMENT_SET_NO": 999, "REV_AT_EPOCH": 13535, "BSTAR": 0.00032168, "MEAN_MOTION_DOT": 8.792e-05, "MEAN_MOTION_DDOT": 0}, "tle": {"line1": "1 57400U 23101B   25361.16442220  .00008792  00000+0  32168-3 0  9999", "line2": "2 57400  97.2846  50.4914 0006800  42.8404 317.3365 15.28261437135357"}}, "geometry": {"type": "Point", "coordinates": [174.41352304716705, -81.26688303260721]}}]}